{"type": "FeatureCollection", "features": [ {"type": "Feature", "properties": {"norad_id": 41556, "name": "ZIYUAN 3-02 (ZY 3-02)", "group": "resource", "lat": -61.334245450326804, "lon": -121.37864424856087, "alt_km": 503.32902305798507, "timestamp": "2025-12-24T09:46:30.652793+00:00", "meta": {"OBJECT_NAME": "ZIYUAN 3-02 (ZY 3-02)", "OBJECT_ID": "2016-033A", "EPOCH": "2025-12-24T03:58:40.088928", "MEAN_MOTION": 15.21211785, "ECCENTRICITY": 0.0011362, "INCLINATION": 97.4027, "RA_OF_ASC_NODE": 72.1416, "ARG_OF_PERICENTER": 203.5699, "MEAN_ANOMALY": 156.5018, "EPHEMERIS_TYPE": 0, "CLASSIFICATION_TYPE": "U", "NORAD_CAT_ID": 41556, "ELEMENT_SET_NO": 999, "REV_AT_EPOCH": 53137, "BSTAR": 0.00036697, "MEAN_MOTION_DOT": 8.135e-05, "MEAN_MOTION_DDOT": 0}, "tle": {"line1": "1 41556U 16033A   25358.16574177  .00008135  00000+0  36697-3 0  9995", "line2": "2 41556  97.4027  72.1416 0011362 203.5699 156.5018 15.21211785531378"}}, "geometry": {"type": "Point", "coordinates": [-121.37864424856087, -61.334245450326804]}}, {"type": "Feature", "properties": {"norad_id": 41599, "name": "CARTOSAT-2C", "group": "resource", "lat": 77.63862390943115, "lon": -87.66010309501654, "alt_km": 498.85601342679365, "timestamp": "2025-12-24T09:46:30.652803+00:00", "meta": {"OBJECT_NAME": "CARTOSAT-2C", "OBJECT_ID": "2016-040A", "EPOCH": "2025-12-24T04:35:44.615040", "MEAN_MOTION": 15.19214626, "ECCENTRICITY": 0.0010741, "INCLINATION": 97.4745, "RA_OF_ASC_NODE": 55.3229, "ARG_OF_PERICENTER": 26.9085, "MEAN_ANOMALY": 333.2704, "EPHEMERIS_TYPE": 0, "CLASSIFICATION_TYPE": "U", "NORAD_CAT_ID": 41599, "ELEMENT_SET_NO": 999, "REV_AT_EPOCH": 52714, "BSTAR": 0.00019016, "MEAN_MOTION_DOT": 3.94e-05, "MEAN_MOTION_DDOT": 0}, "tle": {"line1": "1 41599U 16040A   25358.19148860  .00003940  00000+0  19016-3 0  9994", "line2": "2 41599  97.4745  55.3229 0010741  26.9085 333.2704 15.19214626527143"}}, "geometry": {"type": "Point", "coordinates": [-87.66010309501654, 77.63862390943115]}}, {"type": "Feature", "properties": {"norad_id": 41601, "name": "SKYSAT-C1", "group": "resource", "lat": -0.15929490031653815, "lon": 34.782343342382845, "alt_km": 470.00086304059096, "timestamp": "2025-12-24T09:46:30.652813+00:00", "meta": {"OBJECT_NAME": "SKYSAT-C1", "OBJECT_ID": "2016-040C", "EPOCH": "2025-12-24T00:22:30.387936", "MEAN_MOTION": 15.32785523, "ECCENTRICITY": 0.0001064, "INCLINATION": 96.9803, "RA_OF_ASC_NODE": 34.3932, "ARG_OF_PERICENTER": 330.1736, "MEAN_ANOMALY": 29.9446, "EPHEMERIS_TYPE": 0, "CLASSIFICATION_TYPE": "U", "NORAD_CAT_ID": 41601, "ELEMENT_SET_NO": 999, "REV_AT_EPOCH": 53100, "BSTAR": 0.00029648, "MEAN_MOTION_DOT": 9.317e-05, "MEAN_MOTION_DDOT": 0}, "tle": {"line1": "1 41601U 16040C   25358.01562949  .00009317  00000+0  29648-3 0  9993", "line2": "2 41601  96.9803  34.3932 0001064 330.1736  29.9446 15.32785523531001"}}, "geometry": {"type": "Point", "coordinates": [34.782343342382845, -0.15929490031653815]}}, {"type": "Feature", "properties": {"norad_id": 41603, "name": "LAPAN-A3", "group": "resource", "lat": 79.30902313708437, "lon": -142.83271791023975, "alt_km": 469.4752138207032, "timestamp": "2025-12-24T09:46:30.652824+00:00", "meta": {"OBJECT_NAME": "LAPAN-A3", "OBJECT_ID": "2016-040E", "EPOCH": "2025-12-24T04:38:41.410176", "MEAN_MOTION": 15.31642313, "ECCENTRICITY": 0.0008701, "INCLINATION": 97.1432, "RA_OF_ASC_NODE": 355.3333, "ARG_OF_PERICENTER": 286.3924, "MEAN_ANOMALY": 73.6362, "EPHEMERIS_TYPE": 0, "CLASSIFICATION_TYPE": "U", "NORAD_CAT_ID": 41603, "ELEMENT_SET_NO": 999, "REV_AT_EPOCH": 52801, "BSTAR": 0.00015739, "MEAN_MOTION_DOT": 4.739e-05, "MEAN_MOTION_DDOT": 0}, "tle": {"line1": "1 41603U 16040E   25358.19353484  .00004739  00000+0  15739-3 0  9995", "line2": "2 41603  97.1432 355.3333 0008701 286.3924  73.6362 15.31642313528019"}}, "geometry": {"type": "Point", "coordinates": [-142.83271791023975, 79.30902313708437]}}, {"type": "Feature", "properties": {"norad_id": 41604, "name": "BIROS", "group": "resource", "lat": -66.37581573019037, "lon": 46.82154154560378, "alt_km": 299.9539279693654, "timestamp": "2025-12-24T09:46:30.652834+00:00", "meta": {"OBJECT_NAME": "BIROS", "OBJECT_ID": "2016-040F", "EPOCH": "2025-12-24T01:01:08.804064", "MEAN_MOTION": 15.94180536, "ECCENTRICITY": 0.0003827, "INCLINATION": 97.0659, "RA_OF_ASC_NODE": 29.9644, "ARG_OF_PERICENTER": 126.506, "MEAN_ANOMALY": 233.6569, "EPHEMERIS_TYPE": 0, "CLASSIFICATION_TYPE": "U", "NORAD_CAT_ID": 41604, "ELEMENT_SET_NO": 999, "REV_AT_EPOCH": 53052, "BSTAR": 0.00058835, "MEAN_MOTION_DOT": 0.00216442, "MEAN_MOTION_DDOT": 1.9808e-05}, "tle": {"line1": "1 41604U 16040F   25358.04246301  .00216442  19808-4  58835-3 0  9990", "line2": "2 41604  97.0659  29.9644 0003827 126.5060 233.6569 15.94180536530528"}}, "geometry": {"type": "Point", "coordinates": [46.82154154560378, -66.37581573019037]}}, {"type": "Feature", "properties": {"norad_id": 41727, "name": "GAOFEN-3", "group": "resource", "lat": 81.22368040254429, "lon": -69.41850756966507, "alt_km": 743.0412373529034, "timestamp": "2025-12-24T09:46:30.652845+00:00", "meta": {"OBJECT_NAME": "GAOFEN-3", "OBJECT_ID": "2016-049A", "EPOCH": "2025-12-24T04:22:33.519360", "MEAN_MOTION": 14.42216623, "ECCENTRICITY": 0.0001141, "INCLINATION": 98.4033, "RA_OF_ASC_NODE": 3.5938, "ARG_OF_PERICENTER": 56.2867, "MEAN_ANOMALY": 303.8431, "EPHEMERIS_TYPE": 0, "CLASSIFICATION_TYPE": "U", "NORAD_CAT_ID": 41727, "ELEMENT_SET_NO": 999, "REV_AT_EPOCH": 49342, "BSTAR": 7.1077e-05, "MEAN_MOTION_DOT": 1.91e-06, "MEAN_MOTION_DDOT": 0}, "tle": {"line1": "1 41727U 16049A   25358.18233240  .00000191  00000+0  71077-4 0  9993", "line2": "2 41727  98.4033   3.5938 0001141  56.2867 303.8431 14.42216623493424"}}, "geometry": {"type": "Point", "coordinates": [-69.41850756966507, 81.22368040254429]}}, {"type": "Feature", "properties": {"norad_id": 41771, "name": "SKYSAT-C4", "group": "resource", "lat": -17.271953579402446, "lon": 25.19798678492207, "alt_km": 444.89850372693854, "timestamp": "2025-12-24T09:46:30.652855+00:00", "meta": {"OBJECT_NAME": "SKYSAT-C4", "OBJECT_ID": "2016-058B", "EPOCH": "2025-12-24T00:30:33.238656", "MEAN_MOTION": 15.42560985, "ECCENTRICITY": 0.0002485, "INCLINATION": 96.9362, "RA_OF_ASC_NODE": 22.6612, "ARG_OF_PERICENTER": 124.561, "MEAN_ANOMALY": 235.5873, "EPHEMERIS_TYPE": 0, "CLASSIFICATION_TYPE": "U", "NORAD_CAT_ID": 41771, "ELEMENT_SET_NO": 999, "REV_AT_EPOCH": 51841, "BSTAR": 0.00034911, "MEAN_MOTION_DOT": 0.00015093, "MEAN_MOTION_DDOT": 0}, "tle": {"line1": "1 41771U 16058B   25358.02121804  .00015093  00000+0  34911-3 0  9999", "line2": "2 41771  96.9362  22.6612 0002485 124.5610 235.5873 15.42560985518411"}}, "geometry": {"type": "Point", "coordinates": [25.19798678492207, -17.271953579402446]}}, {"type": "Feature", "properties": {"norad_id": 41772, "name": "SKYSAT-C5", "group": "resource", "lat": -82.69458054851104, "lon": 146.05245110486285, "alt_km": 468.7822388353725, "timestamp": "2025-12-24T09:46:30.652866+00:00", "meta": {"OBJECT_NAME": "SKYSAT-C5", "OBJECT_ID": "2016-058C", "EPOCH": "2025-12-24T02:20:51.096768", "MEAN_MOTION": 15.34073711, "ECCENTRICITY": 0.000392, "INCLINATION": 97.0739, "RA_OF_ASC_NODE": 41.3742, "ARG_OF_PERICENTER": 236.4499, "MEAN_ANOMALY": 123.637, "EPHEMERIS_TYPE": 0, "CLASSIFICATION_TYPE": "U", "NORAD_CAT_ID": 41772, "ELEMENT_SET_NO": 999, "REV_AT_EPOCH": 51690, "BSTAR": 0.00028857, "MEAN_MOTION_DOT": 9.444e-05, "MEAN_MOTION_DDOT": 0}, "tle": {"line1": "1 41772U 16058C   25358.09781362  .00009444  00000+0  28857-3 0  9993", "line2": "2 41772  97.0739  41.3742 0003920 236.4499 123.6370 15.34073711516905"}}, "geometry": {"type": "Point", "coordinates": [146.05245110486285, -82.69458054851104]}}, {"type": "Feature", "properties": {"norad_id": 41773, "name": "SKYSAT-C2", "group": "resource", "lat": 56.615770361718255, "lon": 11.639265533224634, "alt_km": 447.01698408840093, "timestamp": "2025-12-24T09:46:30.652876+00:00", "meta": {"OBJECT_NAME": "SKYSAT-C2", "OBJECT_ID": "2016-058D", "EPOCH": "2025-12-24T00:09:18.652032", "MEAN_MOTION": 15.37515699, "ECCENTRICITY": 0.0002891, "INCLINATION": 97.0347, "RA_OF_ASC_NODE": 22.0558, "ARG_OF_PERICENTER": 0.8016, "MEAN_ANOMALY": 359.3234, "EPHEMERIS_TYPE": 0, "CLASSIFICATION_TYPE": "U", "NORAD_CAT_ID": 41773, "ELEMENT_SET_NO": 999, "REV_AT_EPOCH": 51809, "BSTAR": 0.00032672, "MEAN_MOTION_DOT": 0.00011953, "MEAN_MOTION_DDOT": 0}, "tle": {"line1": "1 41773U 16058D   25358.00646588  .00011953  00000+0  32672-3 0  9993", "line2": "2 41773  97.0347  22.0558 0002891   0.8016 359.3234 15.37515699518094"}}, "geometry": {"type": "Point", "coordinates": [11.639265533224634, 56.615770361718255]}}, {"type": "Feature", "properties": {"norad_id": 41774, "name": "SKYSAT-C3", "group": "resource", "lat": -7.884679332949092, "lon": -149.35324860482754, "alt_km": 435.89776572052597, "timestamp": "2025-12-24T09:46:30.652886+00:00", "meta": {"OBJECT_NAME": "SKYSAT-C3", "OBJECT_ID": "2016-058E", "EPOCH": "2025-12-24T01:11:30.109056", "MEAN_MOTION": 15.44788034, "ECCENTRICITY": 0.0002109, "INCLINATION": 96.9281, "RA_OF_ASC_NODE": 31.2705, "ARG_OF_PERICENTER": 105.7361, "MEAN_ANOMALY": 254.4121, "EPHEMERIS_TYPE": 0, "CLASSIFICATION_TYPE": "U", "NORAD_CAT_ID": 41774, "ELEMENT_SET_NO": 999, "REV_AT_EPOCH": 51900, "BSTAR": 0.0004054, "MEAN_MOTION_DOT": 0.00018915, "MEAN_MOTION_DDOT": 0}, "tle": {"line1": "1 41774U 16058E   25358.04965404  .00018915  00000+0  40540-3 0  9997", "line2": "2 41774  96.9281  31.2705 0002109 105.7361 254.4121 15.44788034519001"}}, "geometry": {"type": "Point", "coordinates": [-149.35324860482754, -7.884679332949092]}}]}